STARLINK-36822          
1 67909U 26036F   26070.83335647 -.01876264  00000+0 -13000-1 0  9992
2 67909  42.9993 236.6512 0001191 271.9654 314.8157 15.76732483  3996
STARLINK-36847          
1 67910U 26036G   26070.83335647 -.01875039  00000+0 -13499-1 0  9995
2 67910  42.9994 236.6506 0001369 274.0402 312.7879 15.75871376  3996
STARLINK-36736          
1 67911U 26036H   26070.85314159  .00493094  00000+0  21985-2 0  9997
2 67911  42.9985 236.4760 0001185 294.6548  65.4200 15.82160632  4010
STARLINK-36676          
1 67912U 26036J   26070.85239489  .00188088  00000+0  87495-3 0  9993
2 67912  42.9983 236.4697 0001353 273.8007  86.2710 15.82053966  4012
STARLINK-36690          
1 67913U 26036K   26070.85164192  .00216434  00000+0  10021-2 0  9999
2 67913  42.9981 236.4631 0001178 315.7008  44.3769 15.82075081  4012
STARLINK-36724          
1 67914U 26036L   26070.85014170  .00479839  00000+0  21409-2 0  9992
2 67914  42.9983 236.4507 0001742 327.9257  32.1509 15.82180836  4017
STARLINK-36723          
1 67915U 26036M   26070.85089361  .00251830  00000+0  11596-2 0  9992
2 67915  42.9990 236.4593 0001361 269.6072  90.4644 15.82097649  4011
STARLINK-36721          
1 67916U 26036N   26070.83335647 -.00030458  00000+0 -14268-3 0  9995
2 67916  42.9994 236.5464 0001565 270.0084 358.6186 15.82006997  3991
STARLINK-36722          
1 67917U 26036P   26069.83851444  .00531298  00000+0  23595-2 0  9990
2 67917  42.9984 242.6288 0002027 314.2120  45.8585 15.82148661  3857
STARLINK-36341          
1 67918U 26036Q   26068.89018697  .00777423  00000+0  33126-2 0  9994
2 67918  42.9987 248.4207 0002259 306.3888  53.6775 15.82409136  3705
STARLINK-36663          
1 67919U 26036R   26070.84789291  .00302384  00000+0  13818-2 0  9994
2 67919  42.9987 236.4328 0001887 272.7530  87.3125 15.82126360  4016
STARLINK-36375          
1 67920U 26036S   26069.83626243  .00302702  00000+0  13843-2 0  9992
2 67920  42.9990 242.6117 0000690 277.9892  82.0901 15.82109736  3859
