CCSDS_OMM_VERS = 2.0
CREATION_DATE  = 
ORIGINATOR     = 

OBJECT_NAME    = STARLINK-36822
OBJECT_ID      = 2026-036F
CENTER_NAME    = EARTH
REF_FRAME      = TEME
TIME_SYSTEM    = UTC
MEAN_ELEMENT_THEORY = SGP/SGP4

EPOCH          = 2026-03-11T20:00:01.999008
MEAN_MOTION    = 15.76732483
ECCENTRICITY   = .0001191
INCLINATION    = 42.9993
RA_OF_ASC_NODE = 236.6512
ARG_OF_PERICENTER = 271.9654
MEAN_ANOMALY   = 314.8157

EPHEMERIS_TYPE = 0
CLASSIFICATION_TYPE = U
NORAD_CAT_ID   = 67909
ELEMENT_SET_NO = 999
REV_AT_EPOCH   = 399
BSTAR          = -.13E-1
MEAN_MOTION_DOT = -.1876264E-1
MEAN_MOTION_DDOT = 0

CCSDS_OMM_VERS = 2.0
CREATION_DATE  = 
ORIGINATOR     = 

OBJECT_NAME    = STARLINK-36847
OBJECT_ID      = 2026-036G
CENTER_NAME    = EARTH
REF_FRAME      = TEME
TIME_SYSTEM    = UTC
MEAN_ELEMENT_THEORY = SGP/SGP4

EPOCH          = 2026-03-11T20:00:01.999008
MEAN_MOTION    = 15.75871376
ECCENTRICITY   = .0001369
INCLINATION    = 42.9994
RA_OF_ASC_NODE = 236.6506
ARG_OF_PERICENTER = 274.0402
MEAN_ANOMALY   = 312.7879

EPHEMERIS_TYPE = 0
CLASSIFICATION_TYPE = U
NORAD_CAT_ID   = 67910
ELEMENT_SET_NO = 999
REV_AT_EPOCH   = 399
BSTAR          = -.13499E-1
MEAN_MOTION_DOT = -.1875039E-1
MEAN_MOTION_DDOT = 0

CCSDS_OMM_VERS = 2.0
CREATION_DATE  = 
ORIGINATOR     = 

OBJECT_NAME    = STARLINK-36736
OBJECT_ID      = 2026-036H
CENTER_NAME    = EARTH
REF_FRAME      = TEME
TIME_SYSTEM    = UTC
MEAN_ELEMENT_THEORY = SGP/SGP4

EPOCH          = 2026-03-11T20:28:31.433376
MEAN_MOTION    = 15.82160632
ECCENTRICITY   = .0001185
INCLINATION    = 42.9985
RA_OF_ASC_NODE = 236.4760
ARG_OF_PERICENTER = 294.6548
MEAN_ANOMALY   = 65.4200

EPHEMERIS_TYPE = 0
CLASSIFICATION_TYPE = U
NORAD_CAT_ID   = 67911
ELEMENT_SET_NO = 999
REV_AT_EPOCH   = 401
BSTAR          = .21985E-2
MEAN_MOTION_DOT = .493094E-2
MEAN_MOTION_DDOT = 0

CCSDS_OMM_VERS = 2.0
CREATION_DATE  = 
ORIGINATOR     = 

OBJECT_NAME    = STARLINK-36676
OBJECT_ID      = 2026-036J
CENTER_NAME    = EARTH
REF_FRAME      = TEME
TIME_SYSTEM    = UTC
MEAN_ELEMENT_THEORY = SGP/SGP4

EPOCH          = 2026-03-11T20:27:26.918496
MEAN_MOTION    = 15.82053966
ECCENTRICITY   = .0001353
INCLINATION    = 42.9983
RA_OF_ASC_NODE = 236.4697
ARG_OF_PERICENTER = 273.8007
MEAN_ANOMALY   = 86.2710

EPHEMERIS_TYPE = 0
CLASSIFICATION_TYPE = U
NORAD_CAT_ID   = 67912
ELEMENT_SET_NO = 999
REV_AT_EPOCH   = 401
BSTAR          = .87495E-3
MEAN_MOTION_DOT = .188088E-2
MEAN_MOTION_DDOT = 0

CCSDS_OMM_VERS = 2.0
CREATION_DATE  = 
ORIGINATOR     = 

OBJECT_NAME    = STARLINK-36690
OBJECT_ID      = 2026-036K
CENTER_NAME    = EARTH
REF_FRAME      = TEME
TIME_SYSTEM    = UTC
MEAN_ELEMENT_THEORY = SGP/SGP4

EPOCH          = 2026-03-11T20:26:21.861888
MEAN_MOTION    = 15.82075081
ECCENTRICITY   = .0001178
INCLINATION    = 42.9981
RA_OF_ASC_NODE = 236.4631
ARG_OF_PERICENTER = 315.7008
MEAN_ANOMALY   = 44.3769

EPHEMERIS_TYPE = 0
CLASSIFICATION_TYPE = U
NORAD_CAT_ID   = 67913
ELEMENT_SET_NO = 999
REV_AT_EPOCH   = 401
BSTAR          = .10021E-2
MEAN_MOTION_DOT = .216434E-2
MEAN_MOTION_DDOT = 0

CCSDS_OMM_VERS = 2.0
CREATION_DATE  = 
ORIGINATOR     = 

OBJECT_NAME    = STARLINK-36724
OBJECT_ID      = 2026-036L
CENTER_NAME    = EARTH
REF_FRAME      = TEME
TIME_SYSTEM    = UTC
MEAN_ELEMENT_THEORY = SGP/SGP4

EPOCH          = 2026-03-11T20:24:12.242880
MEAN_MOTION    = 15.82180836
ECCENTRICITY   = .0001742
INCLINATION    = 42.9983
RA_OF_ASC_NODE = 236.4507
ARG_OF_PERICENTER = 327.9257
MEAN_ANOMALY   = 32.1509

EPHEMERIS_TYPE = 0
CLASSIFICATION_TYPE = U
NORAD_CAT_ID   = 67914
ELEMENT_SET_NO = 999
REV_AT_EPOCH   = 401
BSTAR          = .21409E-2
MEAN_MOTION_DOT = .479839E-2
MEAN_MOTION_DDOT = 0

CCSDS_OMM_VERS = 2.0
CREATION_DATE  = 
ORIGINATOR     = 

OBJECT_NAME    = STARLINK-36723
OBJECT_ID      = 2026-036M
CENTER_NAME    = EARTH
REF_FRAME      = TEME
TIME_SYSTEM    = UTC
MEAN_ELEMENT_THEORY = SGP/SGP4

EPOCH          = 2026-03-11T20:25:17.207904
MEAN_MOTION    = 15.82097649
ECCENTRICITY   = .0001361
INCLINATION    = 42.9990
RA_OF_ASC_NODE = 236.4593
ARG_OF_PERICENTER = 269.6072
MEAN_ANOMALY   = 90.4644

EPHEMERIS_TYPE = 0
CLASSIFICATION_TYPE = U
NORAD_CAT_ID   = 67915
ELEMENT_SET_NO = 999
REV_AT_EPOCH   = 401
BSTAR          = .11596E-2
MEAN_MOTION_DOT = .25183E-2
MEAN_MOTION_DDOT = 0

CCSDS_OMM_VERS = 2.0
CREATION_DATE  = 
ORIGINATOR     = 

OBJECT_NAME    = STARLINK-36721
OBJECT_ID      = 2026-036N
CENTER_NAME    = EARTH
REF_FRAME      = TEME
TIME_SYSTEM    = UTC
MEAN_ELEMENT_THEORY = SGP/SGP4

EPOCH          = 2026-03-11T20:00:01.999008
MEAN_MOTION    = 15.82006997
ECCENTRICITY   = .0001565
INCLINATION    = 42.9994
RA_OF_ASC_NODE = 236.5464
ARG_OF_PERICENTER = 270.0084
MEAN_ANOMALY   = 358.6186

EPHEMERIS_TYPE = 0
CLASSIFICATION_TYPE = U
NORAD_CAT_ID   = 67916
ELEMENT_SET_NO = 999
REV_AT_EPOCH   = 399
BSTAR          = -.14268E-3
MEAN_MOTION_DOT = -.30458E-3
MEAN_MOTION_DDOT = 0

CCSDS_OMM_VERS = 2.0
CREATION_DATE  = 
ORIGINATOR     = 

OBJECT_NAME    = STARLINK-36722
OBJECT_ID      = 2026-036P
CENTER_NAME    = EARTH
REF_FRAME      = TEME
TIME_SYSTEM    = UTC
MEAN_ELEMENT_THEORY = SGP/SGP4

EPOCH          = 2026-03-10T20:07:27.647616
MEAN_MOTION    = 15.82148661
ECCENTRICITY   = .0002027
INCLINATION    = 42.9984
RA_OF_ASC_NODE = 242.6288
ARG_OF_PERICENTER = 314.2120
MEAN_ANOMALY   = 45.8585

EPHEMERIS_TYPE = 0
CLASSIFICATION_TYPE = U
NORAD_CAT_ID   = 67917
ELEMENT_SET_NO = 999
REV_AT_EPOCH   = 385
BSTAR          = .23594797E-2
MEAN_MOTION_DOT = .531298E-2
MEAN_MOTION_DDOT = 0

CCSDS_OMM_VERS = 2.0
CREATION_DATE  = 
ORIGINATOR     = 

OBJECT_NAME    = STARLINK-36341
OBJECT_ID      = 2026-036Q
CENTER_NAME    = EARTH
REF_FRAME      = TEME
TIME_SYSTEM    = UTC
MEAN_ELEMENT_THEORY = SGP/SGP4

EPOCH          = 2026-03-09T21:21:52.154208
MEAN_MOTION    = 15.82409136
ECCENTRICITY   = .0002259
INCLINATION    = 42.9987
RA_OF_ASC_NODE = 248.4207
ARG_OF_PERICENTER = 306.3888
MEAN_ANOMALY   = 53.6775

EPHEMERIS_TYPE = 0
CLASSIFICATION_TYPE = U
NORAD_CAT_ID   = 67918
ELEMENT_SET_NO = 999
REV_AT_EPOCH   = 370
BSTAR          = .33126E-2
MEAN_MOTION_DOT = .777423E-2
MEAN_MOTION_DDOT = 0

CCSDS_OMM_VERS = 2.0
CREATION_DATE  = 
ORIGINATOR     = 

OBJECT_NAME    = STARLINK-36663
OBJECT_ID      = 2026-036R
CENTER_NAME    = EARTH
REF_FRAME      = TEME
TIME_SYSTEM    = UTC
MEAN_ELEMENT_THEORY = SGP/SGP4

EPOCH          = 2026-03-11T20:20:57.947424
MEAN_MOTION    = 15.82126360
ECCENTRICITY   = .0001887
INCLINATION    = 42.9987
RA_OF_ASC_NODE = 236.4328
ARG_OF_PERICENTER = 272.7530
MEAN_ANOMALY   = 87.3125

EPHEMERIS_TYPE = 0
CLASSIFICATION_TYPE = U
NORAD_CAT_ID   = 67919
ELEMENT_SET_NO = 999
REV_AT_EPOCH   = 401
BSTAR          = .13818E-2
MEAN_MOTION_DOT = .302384E-2
MEAN_MOTION_DDOT = 0

CCSDS_OMM_VERS = 2.0
CREATION_DATE  = 
ORIGINATOR     = 

OBJECT_NAME    = STARLINK-36375
OBJECT_ID      = 2026-036S
CENTER_NAME    = EARTH
REF_FRAME      = TEME
TIME_SYSTEM    = UTC
MEAN_ELEMENT_THEORY = SGP/SGP4

EPOCH          = 2026-03-10T20:04:13.073952
MEAN_MOTION    = 15.82109736
ECCENTRICITY   = .00006906
INCLINATION    = 42.9990
RA_OF_ASC_NODE = 242.6117
ARG_OF_PERICENTER = 277.9892
MEAN_ANOMALY   = 82.0901

EPHEMERIS_TYPE = 0
CLASSIFICATION_TYPE = U
NORAD_CAT_ID   = 67920
ELEMENT_SET_NO = 999
REV_AT_EPOCH   = 385
BSTAR          = .13842814E-2
MEAN_MOTION_DOT = .302702E-2
MEAN_MOTION_DDOT = 0

